[{"OBJECT_NAME":"STARLINK-4432","OBJECT_ID":"2022-099Y","EPOCH":"2026-03-09T22:06:52.901568","MEAN_MOTION":15.05636048,"ECCENTRICITY":9.595e-5,"INCLINATION":97.6019,"RA_OF_ASC_NODE":191.4441,"ARG_OF_PERICENTER":99.2216,"MEAN_ANOMALY":260.912,"EPHEMERIS_TYPE":0,"CLASSIFICATION_TYPE":"U","NORAD_CAT_ID":53487,"ELEMENT_SET_NO":999,"REV_AT_EPOCH":19608,"BSTAR":-1.3025967e-5,"MEAN_MOTION_DOT":-2.49e-6,"MEAN_MOTION_DDOT":0},{"OBJECT_NAME":"STUDSAT","OBJECT_ID":"2010-035B","EPOCH":"2026-03-09T18:37:00.077376","MEAN_MOTION":15.04045903,"ECCENTRICITY":0.00117838,"INCLINATION":98.1026,"RA_OF_ASC_NODE":330.9975,"ARG_OF_PERICENTER":15.8359,"MEAN_ANOMALY":344.3232,"EPHEMERIS_TYPE":0,"CLASSIFICATION_TYPE":"U","NORAD_CAT_ID":36796,"ELEMENT_SET_NO":999,"REV_AT_EPOCH":85020,"BSTAR":0.00039642444,"MEAN_MOTION_DOT":5.425e-5,"MEAN_MOTION_DDOT":0}]
